{"type": "FeatureCollection", "features": [ {"type": "Feature", "properties": {"norad_id": 30960, "name": "FENGYUN 1C DEB", "group": "fengyun-1c-debris", "lat": 49.421981450074, "lon": 98.5097775452458, "alt_km": 671.7496541849887, "timestamp": "2025-12-18T14:52:08.305612+00:00", "meta": {"OBJECT_NAME": "FENGYUN 1C DEB", "OBJECT_ID": "1999-025BBA", "EPOCH": "2025-12-18T03:10:39.664992", "MEAN_MOTION": 14.66992956, "ECCENTRICITY": 0.01961531, "INCLINATION": 99.0009, "RA_OF_ASC_NODE": 108.6406, "ARG_OF_PERICENTER": 145.2813, "MEAN_ANOMALY": 216.1374, "EPHEMERIS_TYPE": 0, "CLASSIFICATION_TYPE": "U", "NORAD_CAT_ID": 30960, "ELEMENT_SET_NO": 999, "REV_AT_EPOCH": 98777, "BSTAR": 0.0011958402, "MEAN_MOTION_DOT": 8.891e-05, "MEAN_MOTION_DDOT": 0}, "tle": {"line1": "1 30960U 99025BBA 25352.13240353  .00008891  00000+0  11958-2 0  9992", "line2": "2 30960  99.0009 108.6406 0196153 145.2813 216.1374 14.66992956987770"}}, "geometry": {"type": "Point", "coordinates": [98.5097775452458, 49.421981450074]}}, {"type": "Feature", "properties": {"norad_id": 30967, "name": "FENGYUN 1C DEB", "group": "fengyun-1c-debris", "lat": 70.77811282712837, "lon": -87.11759114840487, "alt_km": 752.4676642306804, "timestamp": "2025-12-18T14:52:08.305622+00:00", "meta": {"OBJECT_NAME": "FENGYUN 1C DEB", "OBJECT_ID": "1999-025BBH", "EPOCH": "2025-12-17T08:51:58.316544", "MEAN_MOTION": 14.57173124, "ECCENTRICITY": 0.00946449, "INCLINATION": 98.7642, "RA_OF_ASC_NODE": 297.8284, "ARG_OF_PERICENTER": 225.2916, "MEAN_ANOMALY": 134.0546, "EPHEMERIS_TYPE": 0, "CLASSIFICATION_TYPE": "U", "NORAD_CAT_ID": 30967, "ELEMENT_SET_NO": 999, "REV_AT_EPOCH": 99081, "BSTAR": 0.00055251457, "MEAN_MOTION_DOT": 2.594e-05, "MEAN_MOTION_DDOT": 0}, "tle": {"line1": "1 30967U 99025BBH 25351.36942496  .00002594  00000+0  55251-3 0  9999", "line2": "2 30967  98.7642 297.8284 0094644 225.2916 134.0546 14.57173124990812"}}, "geometry": {"type": "Point", "coordinates": [-87.11759114840487, 70.77811282712837]}}, {"type": "Feature", "properties": {"norad_id": 30971, "name": "FENGYUN 1C DEB", "group": "fengyun-1c-debris", "lat": -46.7647215177124, "lon": -152.6951728859324, "alt_km": 593.9356398010241, "timestamp": "2025-12-18T14:52:08.305632+00:00", "meta": {"OBJECT_NAME": "FENGYUN 1C DEB", "OBJECT_ID": "1999-025BBM", "EPOCH": "2025-12-17T08:46:03.055296", "MEAN_MOTION": 14.71744333, "ECCENTRICITY": 0.01639021, "INCLINATION": 99.2095, "RA_OF_ASC_NODE": 35.8227, "ARG_OF_PERICENTER": 176.9152, "MEAN_ANOMALY": 247.6493, "EPHEMERIS_TYPE": 0, "CLASSIFICATION_TYPE": "U", "NORAD_CAT_ID": 30971, "ELEMENT_SET_NO": 999, "REV_AT_EPOCH": 99785, "BSTAR": 0.00047613959, "MEAN_MOTION_DOT": 3.596e-05, "MEAN_MOTION_DDOT": 0}, "tle": {"line1": "1 30971U 99025BBM 25351.36531314  .00003596  00000+0  47614-3 0  9994", "line2": "2 30971  99.2095  35.8227 0163902 176.9152 247.6493 14.71744333997855"}}, "geometry": {"type": "Point", "coordinates": [-152.6951728859324, -46.7647215177124]}}, {"type": "Feature", "properties": {"norad_id": 30979, "name": "FENGYUN 1C DEB", "group": "fengyun-1c-debris", "lat": 67.44651699050681, "lon": -128.438490529547, "alt_km": 744.7549474546277, "timestamp": "2025-12-18T14:52:08.305642+00:00", "meta": {"OBJECT_NAME": "FENGYUN 1C DEB", "OBJECT_ID": "1999-025BBV", "EPOCH": "2025-12-17T11:45:25.272576", "MEAN_MOTION": 14.78860075, "ECCENTRICITY": 0.01901628, "INCLINATION": 97.8309, "RA_OF_ASC_NODE": 249.8138, "ARG_OF_PERICENTER": 225.6539, "MEAN_ANOMALY": 313.5833, "EPHEMERIS_TYPE": 0, "CLASSIFICATION_TYPE": "U", "NORAD_CAT_ID": 30979, "ELEMENT_SET_NO": 999, "REV_AT_EPOCH": 99215, "BSTAR": 0.00071331159, "MEAN_MOTION_DOT": 7.072e-05, "MEAN_MOTION_DDOT": 0}, "tle": {"line1": "1 30979U 99025BBV 25351.48987584  .00007072  00000+0  71331-3 0  9995", "line2": "2 30979  97.8309 249.8138 0190162 225.6539 313.5833 14.78860075992150"}}, "geometry": {"type": "Point", "coordinates": [-128.438490529547, 67.44651699050681]}}, {"type": "Feature", "properties": {"norad_id": 30982, "name": "FENGYUN 1C DEB", "group": "fengyun-1c-debris", "lat": 57.769147359303645, "lon": -30.527017510990053, "alt_km": 787.5585396956503, "timestamp": "2025-12-18T14:52:08.305652+00:00", "meta": {"OBJECT_NAME": "FENGYUN 1C DEB", "OBJECT_ID": "1999-025BBY", "EPOCH": "2025-12-17T22:11:07.408320", "MEAN_MOTION": 14.50968482, "ECCENTRICITY": 0.01801545, "INCLINATION": 98.2165, "RA_OF_ASC_NODE": 342.0421, "ARG_OF_PERICENTER": 296.5434, "MEAN_ANOMALY": 91.5532, "EPHEMERIS_TYPE": 0, "CLASSIFICATION_TYPE": "U", "NORAD_CAT_ID": 30982, "ELEMENT_SET_NO": 999, "REV_AT_EPOCH": 71129, "BSTAR": 0.00028028971, "MEAN_MOTION_DOT": 1.311e-05, "MEAN_MOTION_DDOT": 0}, "tle": {"line1": "1 30982U 99025BBY 25351.92439130  .00001311  00000+0  28029-3 0  9993", "line2": "2 30982  98.2165 342.0421 0180154 296.5434  91.5532 14.50968482711295"}}, "geometry": {"type": "Point", "coordinates": [-30.527017510990053, 57.769147359303645]}}, {"type": "Feature", "properties": {"norad_id": 30984, "name": "FENGYUN 1C DEB", "group": "fengyun-1c-debris", "lat": -75.01128383042143, "lon": 61.72627771923049, "alt_km": 695.8419268415928, "timestamp": "2025-12-18T14:52:08.305662+00:00", "meta": {"OBJECT_NAME": "FENGYUN 1C DEB", "OBJECT_ID": "1999-025BCA", "EPOCH": "2025-12-14T08:34:17.695200", "MEAN_MOTION": 14.50446749, "ECCENTRICITY": 0.0127269, "INCLINATION": 98.2639, "RA_OF_ASC_NODE": 24.6654, "ARG_OF_PERICENTER": 3.1447, "MEAN_ANOMALY": 357.0519, "EPHEMERIS_TYPE": 0, "CLASSIFICATION_TYPE": "U", "NORAD_CAT_ID": 30984, "ELEMENT_SET_NO": 999, "REV_AT_EPOCH": 95187, "BSTAR": 0.00088527439, "MEAN_MOTION_DOT": 3.793e-05, "MEAN_MOTION_DDOT": 0}, "tle": {"line1": "1 30984U 99025BCA 25348.35714925  .00003793  00000+0  88527-3 0  9991", "line2": "2 30984  98.2639  24.6654 0127269   3.1447 357.0519 14.50446749951870"}}, "geometry": {"type": "Point", "coordinates": [61.72627771923049, -75.01128383042143]}}, {"type": "Feature", "properties": {"norad_id": 30988, "name": "FENGYUN 1C DEB", "group": "fengyun-1c-debris", "lat": 55.899271112263165, "lon": -72.00095744532751, "alt_km": 488.17459596147546, "timestamp": "2025-12-18T14:52:08.305672+00:00", "meta": {"OBJECT_NAME": "FENGYUN 1C DEB", "OBJECT_ID": "1999-025BCE", "EPOCH": "2025-12-17T19:44:55.876416", "MEAN_MOTION": 15.26806274, "ECCENTRICITY": 0.01109228, "INCLINATION": 98.5407, "RA_OF_ASC_NODE": 299.9125, "ARG_OF_PERICENTER": 322.685, "MEAN_ANOMALY": 36.6715, "EPHEMERIS_TYPE": 0, "CLASSIFICATION_TYPE": "U", "NORAD_CAT_ID": 30988, "ELEMENT_SET_NO": 999, "REV_AT_EPOCH": 99641, "BSTAR": 0.0017915395, "MEAN_MOTION_DOT": 0.00056815, "MEAN_MOTION_DDOT": 0}, "tle": {"line1": "1 30988U 99025BCE 25351.82286894  .00056815  00000+0  17915-2 0  9995", "line2": "2 30988  98.5407 299.9125 0110922 322.6850  36.6715 15.26806274996419"}}, "geometry": {"type": "Point", "coordinates": [-72.00095744532751, 55.899271112263165]}}, {"type": "Feature", "properties": {"norad_id": 30989, "name": "FENGYUN 1C DEB", "group": "fengyun-1c-debris", "lat": -28.25023971940266, "lon": 71.17585483643565, "alt_km": 875.3755446945579, "timestamp": "2025-12-18T14:52:08.305682+00:00", "meta": {"OBJECT_NAME": "FENGYUN 1C DEB", "OBJECT_ID": "1999-025BCF", "EPOCH": "2025-12-17T03:20:24.603360", "MEAN_MOTION": 14.13958751, "ECCENTRICITY": 0.00905117, "INCLINATION": 99.0535, "RA_OF_ASC_NODE": 64.7621, "ARG_OF_PERICENTER": 87.4586, "MEAN_ANOMALY": 273.6943, "EPHEMERIS_TYPE": 0, "CLASSIFICATION_TYPE": "U", "NORAD_CAT_ID": 30989, "ELEMENT_SET_NO": 999, "REV_AT_EPOCH": 96050, "BSTAR": 0.0012454866, "MEAN_MOTION_DOT": 2.414e-05, "MEAN_MOTION_DDOT": 0}, "tle": {"line1": "1 30989U 99025BCF 25351.13917365  .00002414  00000+0  12455-2 0  9994", "line2": "2 30989  99.0535  64.7621 0090511  87.4586 273.6943 14.13958751960500"}}, "geometry": {"type": "Point", "coordinates": [71.17585483643565, -28.25023971940266]}}, {"type": "Feature", "properties": {"norad_id": 30993, "name": "FENGYUN 1C DEB", "group": "fengyun-1c-debris", "lat": 3.8118907931257495, "lon": 84.61287214233906, "alt_km": 764.4198595701973, "timestamp": "2025-12-18T14:52:08.305692+00:00", "meta": {"OBJECT_NAME": "FENGYUN 1C DEB", "OBJECT_ID": "1999-025BCK", "EPOCH": "2025-12-18T05:06:22.839840", "MEAN_MOTION": 14.35477092, "ECCENTRICITY": 0.00162002, "INCLINATION": 98.8467, "RA_OF_ASC_NODE": 84.7905, "ARG_OF_PERICENTER": 356.9858, "MEAN_ANOMALY": 66.0529, "EPHEMERIS_TYPE": 0, "CLASSIFICATION_TYPE": "U", "NORAD_CAT_ID": 30993, "ELEMENT_SET_NO": 999, "REV_AT_EPOCH": 96998, "BSTAR": 0.0014576679, "MEAN_MOTION_DOT": 4.153e-05, "MEAN_MOTION_DDOT": 0}, "tle": {"line1": "1 30993U 99025BCK 25352.21276435  .00004153  00000+0  14577-2 0  9994", "line2": "2 30993  98.8467  84.7905 0016200 356.9858  66.0529 14.35477092969985"}}, "geometry": {"type": "Point", "coordinates": [84.61287214233906, 3.8118907931257495]}}, {"type": "Feature", "properties": {"norad_id": 30994, "name": "FENGYUN 1C DEB", "group": "fengyun-1c-debris", "lat": -77.71192489669342, "lon": 136.22460218958642, "alt_km": 863.5650533939561, "timestamp": "2025-12-18T14:52:08.305703+00:00", "meta": {"OBJECT_NAME": "FENGYUN 1C DEB", "OBJECT_ID": "1999-025BCL", "EPOCH": "2025-12-18T06:49:57.362016", "MEAN_MOTION": 14.11774104, "ECCENTRICITY": 0.00181339, "INCLINATION": 98.6995, "RA_OF_ASC_NODE": 0.5621, "ARG_OF_PERICENTER": 159.1505, "MEAN_ANOMALY": 201.041, "EPHEMERIS_TYPE": 0, "CLASSIFICATION_TYPE": "U", "NORAD_CAT_ID": 30994, "ELEMENT_SET_NO": 999, "REV_AT_EPOCH": 96663, "BSTAR": 0.00012439843, "MEAN_MOTION_DOT": 1.85e-06, "MEAN_MOTION_DDOT": 0}, "tle": {"line1": "1 30994U 99025BCL 25352.28469169  .00000185  00000+0  12440-3 0  9999", "line2": "2 30994  98.6995   0.5621 0018133 159.1505 201.0410 14.11774104966637"}}, "geometry": {"type": "Point", "coordinates": [136.22460218958642, -77.71192489669342]}}]}